[{"OBJECT_NAME":"NANOSATC-BR1","OBJECT_ID":"2014-033Q","EPOCH":"2026-03-09T23:35:03.168384","MEAN_MOTION":15.28136801,"ECCENTRICITY":0.00046435,"INCLINATION":98.0845,"RA_OF_ASC_NODE":92.7804,"ARG_OF_PERICENTER":147.6715,"MEAN_ANOMALY":212.4808,"EPHEMERIS_TYPE":0,"CLASSIFICATION_TYPE":"U","NORAD_CAT_ID":40024,"ELEMENT_SET_NO":999,"REV_AT_EPOCH":63881,"BSTAR":0.00074295057,"MEAN_MOTION_DOT":0.00020336,"MEAN_MOTION_DDOT":0},{"OBJECT_NAME":"STARLINK-31006","OBJECT_ID":"2024-038B","EPOCH":"2026-03-09T02:53:16.014336","MEAN_MOTION":15.27569142,"ECCENTRICITY":4.529e-5,"INCLINATION":43.0055,"RA_OF_ASC_NODE":339.8224,"ARG_OF_PERICENTER":291.161,"MEAN_ANOMALY":68.9193,"EPHEMERIS_TYPE":0,"CLASSIFICATION_TYPE":"U","NORAD_CAT_ID":59024,"ELEMENT_SET_NO":999,"REV_AT_EPOCH":11525,"BSTAR":-4.3455196e-5,"MEAN_MOTION_DOT":-1.457e-5,"MEAN_MOTION_DDOT":0}]
